[{"OBJECT_NAME":"STARLINK-35393","OBJECT_ID":"2025-221E","EPOCH":"2026-03-09T10:46:33.143808","MEAN_MOTION":15.30205542,"ECCENTRICITY":0.00013987,"INCLINATION":53.1596,"RA_OF_ASC_NODE":89.6657,"ARG_OF_PERICENTER":94.3604,"MEAN_ANOMALY":265.7557,"EPHEMERIS_TYPE":0,"CLASSIFICATION_TYPE":"U","NORAD_CAT_ID":65827,"ELEMENT_SET_NO":999,"REV_AT_EPOCH":2604,"BSTAR":0.0007632145,"MEAN_MOTION_DOT":0.00022317,"MEAN_MOTION_DDOT":0},{"OBJECT_NAME":"CZ-4B DEB","OBJECT_ID":"1999-057DZ","EPOCH":"2026-03-09T09:52:12.897696","MEAN_MOTION":15.33653758,"ECCENTRICITY":0.00127381,"INCLINATION":98.4932,"RA_OF_ASC_NODE":238.6814,"ARG_OF_PERICENTER":254.7139,"MEAN_ANOMALY":105.2693,"EPHEMERIS_TYPE":0,"CLASSIFICATION_TYPE":"U","NORAD_CAT_ID":26235,"ELEMENT_SET_NO":999,"REV_AT_EPOCH":38912,"BSTAR":0.0023807093,"MEAN_MOTION_DOT":0.00078286,"MEAN_MOTION_DDOT":0}]
